[{"OBJECT_NAME":"ONEWEB-0171","OBJECT_ID":"2021-025AE","EPOCH":"2026-03-09T18:12:45.832320","MEAN_MOTION":13.13468811,"ECCENTRICITY":0.0001759,"INCLINATION":87.9035,"RA_OF_ASC_NODE":340.0119,"ARG_OF_PERICENTER":84.3332,"MEAN_ANOMALY":275.7998,"EPHEMERIS_TYPE":0,"CLASSIFICATION_TYPE":"U","NORAD_CAT_ID":48070,"ELEMENT_SET_NO":999,"REV_AT_EPOCH":24056,"BSTAR":-1.6533e-5,"MEAN_MOTION_DOT":7.0e-8,"MEAN_MOTION_DDOT":0},{"OBJECT_NAME":"ONEWEB-0172","OBJECT_ID":"2021-025AF","EPOCH":"2026-03-09T19:33:13.852224","MEAN_MOTION":13.1346848,"ECCENTRICITY":0.0001774,"INCLINATION":87.9035,"RA_OF_ASC_NODE":339.9882,"ARG_OF_PERICENTER":81.2746,"MEAN_ANOMALY":278.8584,"EPHEMERIS_TYPE":0,"CLASSIFICATION_TYPE":"U","NORAD_CAT_ID":48071,"ELEMENT_SET_NO":999,"REV_AT_EPOCH":24146,"BSTAR":0.0019929,"MEAN_MOTION_DOT":7.41e-6,"MEAN_MOTION_DDOT":0},{"OBJECT_NAME":"ONEWEB-0174","OBJECT_ID":"2021-025AG","EPOCH":"2026-03-09T17:16:42.964608","MEAN_MOTION":13.13470056,"ECCENTRICITY":0.0001751,"INCLINATION":87.9034,"RA_OF_ASC_NODE":340.0081,"ARG_OF_PERICENTER":73.6886,"MEAN_ANOMALY":286.4436,"EPHEMERIS_TYPE":0,"CLASSIFICATION_TYPE":"U","NORAD_CAT_ID":48072,"ELEMENT_SET_NO":999,"REV_AT_EPOCH":24077,"BSTAR":9.8992e-5,"MEAN_MOTION_DOT":4.9e-7,"MEAN_MOTION_DDOT":0},{"OBJECT_NAME":"ONEWEB-0175","OBJECT_ID":"2021-025AH","EPOCH":"2026-03-09T18:00:35.939808","MEAN_MOTION":13.13469702,"ECCENTRICITY":0.0001853,"INCLINATION":87.9042,"RA_OF_ASC_NODE":339.9779,"ARG_OF_PERICENTER":88.2999,"MEAN_ANOMALY":271.8342,"EPHEMERIS_TYPE":0,"CLASSIFICATION_TYPE":"U","NORAD_CAT_ID":48073,"ELEMENT_SET_NO":999,"REV_AT_EPOCH":24043,"BSTAR":0.00071921,"MEAN_MOTION_DOT":2.75e-6,"MEAN_MOTION_DDOT":0},{"OBJECT_NAME":"ONEWEB-0177","OBJECT_ID":"2021-025AJ","EPOCH":"2026-03-09T18:17:38.970240","MEAN_MOTION":13.13469827,"ECCENTRICITY":0.0001891,"INCLINATION":87.9047,"RA_OF_ASC_NODE":339.9967,"ARG_OF_PERICENTER":74.876,"MEAN_ANOMALY":285.2578,"EPHEMERIS_TYPE":0,"CLASSIFICATION_TYPE":"U","NORAD_CAT_ID":48074,"ELEMENT_SET_NO":999,"REV_AT_EPOCH":24062,"BSTAR":-0.00025498,"MEAN_MOTION_DOT":-8.0e-7,"MEAN_MOTION_DDOT":0},{"OBJECT_NAME":"ONEWEB-0178","OBJECT_ID":"2021-025AK","EPOCH":"2026-03-09T16:54:58.315104","MEAN_MOTION":13.13470694,"ECCENTRICITY":0.0001963,"INCLINATION":87.9026,"RA_OF_ASC_NODE":340.0355,"ARG_OF_PERICENTER":83.0722,"MEAN_ANOMALY":277.063,"EPHEMERIS_TYPE":0,"CLASSIFICATION_TYPE":"U","NORAD_CAT_ID":48075,"ELEMENT_SET_NO":999,"REV_AT_EPOCH":24066,"BSTAR":-0.00063713,"MEAN_MOTION_DOT":-2.2e-6,"MEAN_MOTION_DDOT":0},{"OBJECT_NAME":"ONEWEB-0108","OBJECT_ID":"2021-025AL","EPOCH":"2026-03-09T19:35:39.731712","MEAN_MOTION":13.13469941,"ECCENTRICITY":0.0001508,"INCLINATION":87.9045,"RA_OF_ASC_NODE":339.9739,"ARG_OF_PERICENTER":75.3113,"MEAN_ANOMALY":284.8183,"EPHEMERIS_TYPE":0,"CLASSIFICATION_TYPE":"U","NORAD_CAT_ID":48076,"ELEMENT_SET_NO":999,"REV_AT_EPOCH":24060,"BSTAR":0.00093761,"MEAN_MOTION_DOT":3.55e-6,"MEAN_MOTION_DDOT":0},{"OBJECT_NAME":"ONEWEB-0169","OBJECT_ID":"2021-025AM","EPOCH":"2026-03-09T18:32:16.212768","MEAN_MOTION":13.13469688,"ECCENTRICITY":0.0001554,"INCLINATION":87.9037,"RA_OF_ASC_NODE":339.9987,"ARG_OF_PERICENTER":75.942,"MEAN_ANOMALY":284.1882,"EPHEMERIS_TYPE":0,"CLASSIFICATION_TYPE":"U","NORAD_CAT_ID":48077,"ELEMENT_SET_NO":999,"REV_AT_EPOCH":23925,"BSTAR":-0.00064238,"MEAN_MOTION_DOT":-2.22e-6,"MEAN_MOTION_DDOT":0},{"OBJECT_NAME":"ONEWEB-0176","OBJECT_ID":"2021-031A","EPOCH":"2026-03-09T16:37:58.961856","MEAN_MOTION":13.14502381,"ECCENTRICITY":0.0001726,"INCLINATION":87.8989,"RA_OF_ASC_NODE":309.5529,"ARG_OF_PERICENTER":84.12,"MEAN_ANOMALY":276.0127,"EPHEMERIS_TYPE":0,"CLASSIFICATION_TYPE":"U","NORAD_CAT_ID":48210,"ELEMENT_SET_NO":999,"REV_AT_EPOCH":23524,"BSTAR":-0.00062108,"MEAN_MOTION_DOT":-2.17e-6,"MEAN_MOTION_DDOT":0},{"OBJECT_NAME":"ONEWEB-0184","OBJECT_ID":"2021-031B","EPOCH":"2026-03-09T17:48:46.257120","MEAN_MOTION":13.14502969,"ECCENTRICITY":0.0002206,"INCLINATION":87.9,"RA_OF_ASC_NODE":309.5336,"ARG_OF_PERICENTER":100.3297,"MEAN_ANOMALY":259.8082,"EPHEMERIS_TYPE":0,"CLASSIFICATION_TYPE":"U","NORAD_CAT_ID":48211,"ELEMENT_SET_NO":999,"REV_AT_EPOCH":23522,"BSTAR":0.00042123,"MEAN_MOTION_DOT":1.69e-6,"MEAN_MOTION_DDOT":0},{"OBJECT_NAME":"ONEWEB-0179","OBJECT_ID":"2021-031C","EPOCH":"2026-03-09T17:06:31.650912","MEAN_MOTION":13.14503091,"ECCENTRICITY":0.0001749,"INCLINATION":87.8988,"RA_OF_ASC_NODE":309.5417,"ARG_OF_PERICENTER":76.2174,"MEAN_ANOMALY":283.915,"EPHEMERIS_TYPE":0,"CLASSIFICATION_TYPE":"U","NORAD_CAT_ID":48212,"ELEMENT_SET_NO":999,"REV_AT_EPOCH":23526,"BSTAR":0.00026836,"MEAN_MOTION_DOT":1.12e-6,"MEAN_MOTION_DDOT":0},{"OBJECT_NAME":"ONEWEB-0180","OBJECT_ID":"2021-031D","EPOCH":"2026-03-09T16:03:43.800480","MEAN_MOTION":13.14502396,"ECCENTRICITY":0.000196,"INCLINATION":87.8992,"RA_OF_ASC_NODE":309.5516,"ARG_OF_PERICENTER":79.6775,"MEAN_ANOMALY":280.4576,"EPHEMERIS_TYPE":0,"CLASSIFICATION_TYPE":"U","NORAD_CAT_ID":48213,"ELEMENT_SET_NO":999,"REV_AT_EPOCH":23514,"BSTAR":0.00025509,"MEAN_MOTION_DOT":1.07e-6,"MEAN_MOTION_DDOT":0},{"OBJECT_NAME":"ONEWEB-0218","OBJECT_ID":"2021-031E","EPOCH":"2026-03-09T16:35:42.221760","MEAN_MOTION":13.14502317,"ECCENTRICITY":0.0002449,"INCLINATION":87.8988,"RA_OF_ASC_NODE":309.5462,"ARG_OF_PERICENTER":94.5208,"MEAN_ANOMALY":265.6202,"EPHEMERIS_TYPE":0,"CLASSIFICATION_TYPE":"U","NORAD_CAT_ID":48214,"ELEMENT_SET_NO":999,"REV_AT_EPOCH":23530,"BSTAR":-0.00042611,"MEAN_MOTION_DOT":-1.45e-6,"MEAN_MOTION_DDOT":0},{"OBJECT_NAME":"ONEWEB-0209","OBJECT_ID":"2021-031F","EPOCH":"2026-03-09T16:19:42.544992","MEAN_MOTION":13.14502284,"ECCENTRICITY":0.0001799,"INCLINATION":87.898,"RA_OF_ASC_NODE":309.5753,"ARG_OF_PERICENTER":76.1733,"MEAN_ANOMALY":283.9597,"EPHEMERIS_TYPE":0,"CLASSIFICATION_TYPE":"U","NORAD_CAT_ID":48215,"ELEMENT_SET_NO":999,"REV_AT_EPOCH":23530,"BSTAR":-0.00014705,"MEAN_MOTION_DOT":-4.2e-7,"MEAN_MOTION_DDOT":0},{"OBJECT_NAME":"ONEWEB-0198","OBJECT_ID":"2021-031G","EPOCH":"2026-03-09T15:57:04.705920","MEAN_MOTION":13.14502815,"ECCENTRICITY":0.0002084,"INCLINATION":87.8981,"RA_OF_ASC_NODE":309.5779,"ARG_OF_PERICENTER":81.6561,"MEAN_ANOMALY":278.4805,"EPHEMERIS_TYPE":0,"CLASSIFICATION_TYPE":"U","NORAD_CAT_ID":48216,"ELEMENT_SET_NO":999,"REV_AT_EPOCH":23541,"BSTAR":0.00055303,"MEAN_MOTION_DOT":2.18e-6,"MEAN_MOTION_DDOT":0},{"OBJECT_NAME":"ONEWEB-0189","OBJECT_ID":"2021-031H","EPOCH":"2026-03-09T16:15:08.770176","MEAN_MOTION":13.1450256,"ECCENTRICITY":0.0002008,"INCLINATION":87.8987,"RA_OF_ASC_NODE":309.5521,"ARG_OF_PERICENTER":82.6865,"MEAN_ANOMALY":277.4493,"EPHEMERIS_TYPE":0,"CLASSIFICATION_TYPE":"U","NORAD_CAT_ID":48217,"ELEMENT_SET_NO":999,"REV_AT_EPOCH":23515,"BSTAR":2.4855e-5,"MEAN_MOTION_DOT":2.2e-7,"MEAN_MOTION_DDOT":0},{"OBJECT_NAME":"ONEWEB-0196","OBJECT_ID":"2021-031J","EPOCH":"2026-03-09T15:43:10.595136","MEAN_MOTION":13.14503268,"ECCENTRICITY":0.000177,"INCLINATION":87.8988,"RA_OF_ASC_NODE":309.5671,"ARG_OF_PERICENTER":82.7045,"MEAN_ANOMALY":277.4286,"EPHEMERIS_TYPE":0,"CLASSIFICATION_TYPE":"U","NORAD_CAT_ID":48218,"ELEMENT_SET_NO":999,"REV_AT_EPOCH":23515,"BSTAR":0.00086362,"MEAN_MOTION_DOT":3.33e-6,"MEAN_MOTION_DDOT":0}]
