ONEWEB-0171             
1 48070U 21025AE  26068.75886380  .00000007  00000+0 -16533-4 0  9995
2 48070  87.9035 340.0119 0001759  84.3332 275.7998 13.13468811240566
ONEWEB-0172             
1 48071U 21025AF  26068.81474366  .00000741  00000+0  19929-2 0  9994
2 48071  87.9035 339.9882 0001774  81.2746 278.8584 13.13468480241460
ONEWEB-0174             
1 48072U 21025AG  26068.71994172  .00000049  00000+0  98992-4 0  9996
2 48072  87.9034 340.0081 0001751  73.6886 286.4436 13.13470056240775
ONEWEB-0175             
1 48073U 21025AH  26068.75041597  .00000275  00000+0  71921-3 0  9998
2 48073  87.9042 339.9779 0001853  88.2999 271.8342 13.13469702240439
ONEWEB-0177             
1 48074U 21025AJ  26068.76225660 -.00000080  00000+0 -25498-3 0  9999
2 48074  87.9047 339.9967 0001891  74.8760 285.2578 13.13469827240622
ONEWEB-0178             
1 48075U 21025AK  26068.70484161 -.00000220  00000+0 -63713-3 0  9995
2 48075  87.9026 340.0355 0001963  83.0722 277.0630 13.13470694240660
ONEWEB-0108             
1 48076U 21025AL  26068.81643208  .00000355  00000+0  93761-3 0  9990
2 48076  87.9045 339.9739 0001508  75.3113 284.8183 13.13469941240604
ONEWEB-0169             
1 48077U 21025AM  26068.77240987 -.00000222  00000+0 -64238-3 0  9995
2 48077  87.9037 339.9987 0001554  75.9420 284.1882 13.13469688239255
ONEWEB-0176             
1 48210U 21031A   26068.69304354 -.00000217  00000+0 -62108-3 0  9999
2 48210  87.8989 309.5529 0001726  84.1200 276.0127 13.14502381235249
ONEWEB-0184             
1 48211U 21031B   26068.74220205  .00000169  00000+0  42123-3 0  9997
2 48211  87.9000 309.5336 0002206 100.3297 259.8082 13.14502969235221
ONEWEB-0179             
1 48212U 21031C   26068.71286633  .00000112  00000+0  26836-3 0  9993
2 48212  87.8988 309.5417 0001749  76.2174 283.9150 13.14503091235267
ONEWEB-0180             
1 48213U 21031D   26068.66925695  .00000107  00000+0  25509-3 0  9996
2 48213  87.8992 309.5516 0001960  79.6775 280.4576 13.14502396235140
ONEWEB-0218             
1 48214U 21031E   26068.69146090 -.00000145  00000+0 -42611-3 0  9991
2 48214  87.8988 309.5462 0002449  94.5208 265.6202 13.14502317235308
ONEWEB-0209             
1 48215U 21031F   26068.68035353 -.00000042  00000+0 -14705-3 0  9999
2 48215  87.8980 309.5753 0001799  76.1733 283.9597 13.14502284235303
ONEWEB-0198             
1 48216U 21031G   26068.66463780  .00000218  00000+0  55303-3 0  9999
2 48216  87.8981 309.5779 0002084  81.6561 278.4805 13.14502815235414
ONEWEB-0189             
1 48217U 21031H   26068.67718484  .00000022  00000+0  24855-4 0  9997
2 48217  87.8987 309.5521 0002008  82.6865 277.4493 13.14502560235150
ONEWEB-0196             
1 48218U 21031J   26068.65498374  .00000333  00000+0  86362-3 0  9994
2 48218  87.8988 309.5671 0001770  82.7045 277.4286 13.14503268235150
